[{"OBJECT_NAME":"STARLINK-33827","OBJECT_ID":"2025-091Z","EPOCH":"2026-03-09T23:07:10.948224","MEAN_MOTION":15.27600532,"ECCENTRICITY":5.172e-5,"INCLINATION":42.9987,"RA_OF_ASC_NODE":51.0143,"ARG_OF_PERICENTER":255.0379,"MEAN_ANOMALY":105.0415,"EPHEMERIS_TYPE":0,"CLASSIFICATION_TYPE":"U","NORAD_CAT_ID":63798,"ELEMENT_SET_NO":999,"REV_AT_EPOCH":4894,"BSTAR":0.0011773084,"MEAN_MOTION_DOT":0.00032297,"MEAN_MOTION_DDOT":0},{"OBJECT_NAME":"FENGYUN 1C DEB","OBJECT_ID":"1999-025ETT","EPOCH":"2026-03-07T08:30:03.670560","MEAN_MOTION":15.28888299,"ECCENTRICITY":0.00158464,"INCLINATION":99.1103,"RA_OF_ASC_NODE":112.0072,"ARG_OF_PERICENTER":201.0032,"MEAN_ANOMALY":159.0553,"EPHEMERIS_TYPE":0,"CLASSIFICATION_TYPE":"U","NORAD_CAT_ID":38726,"ELEMENT_SET_NO":999,"REV_AT_EPOCH":71135,"BSTAR":0.013792546,"MEAN_MOTION_DOT":0.00409659,"MEAN_MOTION_DDOT":0}]
